NORAD_CAT_ID,OBJECT_NAME,OBJECT_TYPE,EPOCH,MEAN_MOTION,ECCENTRICITY,INCLINATION,RA_OF_ASC_NODE,ARG_OF_PERICENTER,MEAN_ANOMALY,BSTAR,MEAN_MOTION_DOT,MEAN_MOTION_DDOT,TLE_LINE0,TLE_LINE1,TLE_LINE2,SEMIMAJOR_AXIS,PERIOD,APOGEE,PERIGEE,DECAYED
55398.0,STARLINK-5275,PAYLOAD,2023-03-26 21:41:52,15.69939648,0.0002847,70.0007,297.2513,256.5751,103.5127,0.00010982,0.0001302,0.0,0 STARLINK-5275,1 55398U 23014H   23085.90407494  .00013020  00000-0  10982-3 0  9994,2 55398  70.0007 297.2513 0002847 256.5751 103.5127 15.69939648  9656,6737.207,91.723,360.99,357.154,0.0
55398.0,STARLINK-5275,PAYLOAD,2023-03-26 23:13:37,15.69934097,0.0003163,70.0004,297.0713,254.6202,105.4644,6.7476e-05,7.911e-05,0.0,0 STARLINK-5275,1 55398U 23014H   23085.96779149  .00007911  00000-0  67476-4 0  9992,2 55398  70.0004 297.0713 0003163 254.6202 105.4644 15.69934097  8720,6737.223,91.724,361.219,356.957,0.0
55398.0,STARLINK-5275,PAYLOAD,2023-03-27 14:31:08,15.69923915,0.0003051,69.9996,295.2803,255.1275,104.9583,-6.5755e-07,-2.92e-06,0.0,0 STARLINK-5275,1 55398U 23014H   23086.60495953 -.00000292  00000-0 -65755-6 0  9999,2 55398  69.9996 295.2803 0003051 255.1275 104.9583 15.69923915  9767,6737.252,91.724,361.172,357.061,0.0
55398.0,STARLINK-5275,PAYLOAD,2023-03-27 20:38:08,15.6993134,0.000279,70.001,294.5641,253.5423,106.5466,5.127e-05,5.958e-05,0.0,0 STARLINK-5275,1 55398U 23014H   23086.85982563  .00005958  00000-0  51270-4 0  9991,2 55398  70.0010 294.5641 0002790 253.5423 106.5466 15.69931340  8864,6737.23,91.724,360.975,357.216,0.0
55398.0,STARLINK-5275,PAYLOAD,2023-03-27 22:09:54,15.69930925,0.0002875,70.001,294.3849,255.7497,104.3379,4.7266e-05,5.476e-05,0.0,0 STARLINK-5275,1 55398U 23014H   23086.92354247  .00005476  00000-0  47266-4 0  9996,2 55398  70.0010 294.3849 0002875 255.7497 104.3379 15.69930925  9814,6737.232,91.724,361.034,357.16,0.0
55398.0,STARLINK-5275,PAYLOAD,2023-03-28 01:13:24,15.69927428,0.0003379,69.9985,294.0247,265.0784,95.0026,2.4768e-05,2.767e-05,0.0,0 STARLINK-5275,1 55398U 23014H   23087.05097625  .00002767  00000-0  24768-4 0  9997,2 55398  69.9985 294.0247 0003379 265.0784  95.0026 15.69927428  8890,6737.242,91.724,361.383,356.83,0.0
55398.0,STARLINK-5275,PAYLOAD,2023-03-28 21:06:10,15.69932226,0.0003302,69.999,291.696,265.8721,94.2097,2.461e-05,2.748e-05,0.0,0 STARLINK-5275,1 55398U 23014H   23087.87928908  .00002748  00000-0  24610-4 0  9999,2 55398  69.9990 291.6960 0003302 265.8721  94.2097 15.69932226  9966,6737.228,91.724,361.318,356.868,0.0
55398.0,STARLINK-5275,PAYLOAD,2023-03-28 22:37:55,15.6993174,0.0003328,69.999,291.5168,266.5182,93.5633,2.3739e-05,2.643e-05,0.0,0 STARLINK-5275,1 55398U 23014H   23087.94300594  .00002643  00000-0  23739-4 0  9997,2 55398  69.9990 291.5168 0003328 266.5182  93.5633 15.69931740  9971,6737.229,91.724,361.336,356.852,0.0
55398.0,STARLINK-5275,PAYLOAD,2023-03-29 20:02:27,15.69931227,0.0003091,70.0002,289.0111,260.9763,99.1083,1.7019e-05,1.835e-05,0.0,0 STARLINK-5275,1 55398U 23014H   23088.83504076  .00001835  00000-0  17019-4 0  9993,2 55398  70.0002 289.0111 0003091 260.9763  99.1083 15.69931227  9171,6737.231,91.724,361.178,357.013,0.0
55398.0,STARLINK-5275,PAYLOAD,2023-03-30 00:37:43,15.69915423,0.0003061,69.9998,288.472,267.8373,92.2472,-1.6051e-05,-2.141e-05,0.0,0 STARLINK-5275,1 55398U 23014H   23089.02619926 -.00002141  00000-0 -16051-4 0  9994,2 55398  69.9998 288.4720 0003061 267.8373  92.2472 15.69915423  9201,6737.276,91.725,361.203,357.079,0.0
55398.0,STARLINK-5275,PAYLOAD,2023-03-30 06:44:44,15.69905203,0.000285,70.0003,287.7555,268.8335,91.2534,-1.8603e-05,-2.447e-05,0.0,0 STARLINK-5275,1 55398U 23014H   23089.28107443 -.00002447  00000-0 -18603-4 0  9992,2 55398  70.0003 287.7555 0002850 268.8335  91.2534 15.69905203  9240,6737.305,91.725,361.09,357.25,0.0
55398.0,STARLINK-5275,PAYLOAD,2023-03-30 15:55:15,15.69903638,0.0003144,69.9998,286.6816,266.8416,93.242,-2.1664e-05,-2.814e-05,0.0,0 STARLINK-5275,1 55398U 23014H   23089.66337748 -.00002814  00000-0 -21664-4 0  9996,2 55398  69.9998 286.6816 0003144 266.8416  93.2420 15.69903638 10241,6737.31,91.725,361.293,357.056,0.0
55398.0,STARLINK-5275,PAYLOAD,2023-03-30 22:02:15,15.6992385,0.0003145,69.9994,285.9657,242.8922,117.1953,1.9022e-05,2.075e-05,0.0,0 STARLINK-5275,1 55398U 23014H   23089.91823459  .00002075  00000-0  19022-4 0  9995,2 55398  69.9994 285.9657 0003145 242.8922 117.1953 15.69923850  9343,6737.252,91.724,361.236,356.998,0.0
55398.0,STARLINK-5275,PAYLOAD,2023-03-31 11:47:47,15.70123669,0.0004541,69.9992,284.3534,269.9844,90.0831,0.00031782,0.00038505,0.0,0 STARLINK-5275,1 55398U 23014H   23090.49152123  .00038505  00000-0  31782-3 0  9996,2 55398  69.9992 284.3534 0004541 269.9844  90.0831 15.70123669  9438,6736.68,91.713,361.604,355.486,0.0
55398.0,STARLINK-5275,PAYLOAD,2023-03-31 19:26:45,15.69709902,0.0001168,70.0006,283.4578,273.5791,86.527,-0.0005703,-0.00067612,0.0,0 STARLINK-5275,1 55398U 23014H   23090.81024930 -.00067612  00000-0 -57030-3 0  9993,2 55398  70.0006 283.4578 0001168 273.5791  86.5270 15.69709902  9489,6737.864,91.737,360.516,358.942,0.0
55398.0,STARLINK-5275,PAYLOAD,2023-03-31 22:31:09,15.68636667,0.0002376,70.0,283.1012,104.6526,255.4933,-0.002602,-0.0028692,0.0,0 STARLINK-5275,1 55398U 23014H   23090.93830031 -.00286920  00000-0 -26020-2 0  9992,2 55398  70.0000 283.1012 0002376 104.6526 255.4933 15.68636667  9507,6740.937,91.799,364.404,361.2,0.0
55398.0,STARLINK-5275,PAYLOAD,2023-04-01 12:16:03,15.69922699,0.000347,69.9979,281.4857,269.9946,90.0852,2.8638e-05,3.232e-05,0.0,0 STARLINK-5275,1 55398U 23014H   23091.51115180  .00003232  00000-0  28638-4 0  9998,2 55398  69.9979 281.4857 0003470 269.9946  90.0852 15.69922699 10536,6737.255,91.724,361.458,356.782,0.0
55398.0,STARLINK-5275,PAYLOAD,2023-04-01 16:51:17,15.69948046,0.0003598,69.9978,280.9492,258.9492,101.1299,0.00015413,0.0001838,0.0,0 STARLINK-5275,1 55398U 23014H   23091.70228943  .00018380  00000-0  15413-3 0  9997,2 55398  69.9978 280.9492 0003598 258.9492 101.1299 15.69948046  9620,6737.183,91.723,361.472,356.624,0.0
55398.0,STARLINK-5275,PAYLOAD,2023-04-01 21:26:33,15.69931378,0.0003861,69.9969,280.4113,240.161,119.9202,-1.7567e-06,-4.24e-06,0.0,0 STARLINK-5275,1 55398U 23014H   23091.89344382 -.00000424  00000-0 -17567-5 0  9999,2 55398  69.9969 280.4113 0003861 240.1610 119.9202 15.69931378 10592,6737.23,91.724,361.697,356.494,0.0
55398.0,STARLINK-5275,PAYLOAD,2023-04-02 14:15:50,15.69923703,0.0003659,69.9981,278.4417,257.8133,102.2653,-6.1638e-06,-9.54e-06,0.0,0 STARLINK-5275,1 55398U 23014H   23092.59433114 -.00000954  00000-0 -61638-5 0  9995,2 55398  69.9981 278.4417 0003659 257.8133 102.2653 15.69923703 10701,6737.252,91.724,361.582,356.652,0.0
55398.0,STARLINK-5275,PAYLOAD,2023-04-02 21:54:35,15.69936035,0.0003779,69.9977,277.5443,266.9711,93.1052,2.6311e-05,2.954e-05,0.0,0 STARLINK-5275,1 55398U 23014H   23092.91290919  .00002954  00000-0  26311-4 0  9993,2 55398  69.9977 277.5443 0003779 266.9711  93.1052 15.69936035 10759,6737.217,91.723,361.628,356.536,0.0
55398.0,STARLINK-5275,PAYLOAD,2023-04-03 11:40:23,15.69898162,0.0004325,69.9983,275.9322,266.9788,93.0913,4.8663e-05,5.637e-05,0.0,0 STARLINK-5275,1 55398U 23014H   23093.48637924  .00005637  00000-0  48663-4 0  9992,2 55398  69.9983 275.9322 0004325 266.9788  93.0913 15.69898162  9904,6737.325,91.726,362.104,356.276,0.0
55398.0,STARLINK-5275,PAYLOAD,2023-04-03 16:15:37,15.69931975,0.0003322,69.9975,275.3944,271.6599,88.4216,2.4484e-05,2.733e-05,0.0,0 STARLINK-5275,1 55398U 23014H   23093.67751403  .00002733  00000-0  24484-4 0  9991,2 55398  69.9975 275.3944 0003322 271.6599  88.4216 15.69931975  9935,6737.229,91.724,361.332,356.856,0.0
55398.0,STARLINK-5275,PAYLOAD,2023-04-04 06:00:00,15.69880793,0.0003572,69.9996,273.7842,279.892,74.8046,0.00046815,0.00056358,0.0,0 STARLINK-5275,1 55398U 23014H   23094.25001157  .00056358  00000-0  46815-3 0  9993,2 55398  69.9996 273.7842 0003572 279.8920  74.8046 15.69880793 10025,6737.375,91.727,361.647,356.833,0.0
55398.0,STARLINK-5275,PAYLOAD,2023-04-04 16:00:00,15.69951367,0.0003652,70.0001,272.6127,278.4559,270.3728,-0.00042813,-0.00051439,0.0,0 STARLINK-5275,1 55398U 23014H   23094.66667824 -.00051439  00000-0 -42813-3 0  9998,2 55398  70.0001 272.6127 0003652 278.4559 270.3728 15.69951367  1308,6737.173,91.723,361.499,356.578,0.0
55398.0,STARLINK-5275,PAYLOAD,2023-04-04 22:00:00,15.69881974,0.0003772,69.9999,271.9097,280.813,240.5414,0.00039971,0.00048044,0.0,0 STARLINK-5275,1 55398U 23014H   23094.91667824  .00048044  00000-0  39971-3 0  9993,2 55398  69.9999 271.9097 0003772 280.8130 240.5414 15.69881974 10121,6737.372,91.727,361.778,356.695,0.0
55398.0,STARLINK-5275,PAYLOAD,2023-04-05 12:36:30,15.69838642,0.0004724,69.9983,270.2007,280.2153,79.851,-0.00015052,-0.00018215,0.0,0 STARLINK-5275,1 55398U 23014H   23095.52535333 -.00018215  00000-0 -15052-3 0  9993,2 55398  69.9983 270.2007 0004724 280.2153  79.8510 15.69838642 10229,6737.496,91.729,362.543,356.178,0.0
55398.0,STARLINK-5275,PAYLOAD,2023-04-05 14:08:13,15.69908911,0.0005158,69.9971,270.0202,286.0313,74.0314,-6.6165e-06,-1.009e-05,0.0,0 STARLINK-5275,1 55398U 23014H   23095.58904228 -.00001009  00000-0 -66165-5 0  9998,2 55398  69.9971 270.0202 0005158 286.0313  74.0314 15.69908911 11176,6737.295,91.725,362.635,355.685,0.0
55398.0,STARLINK-5275,PAYLOAD,2023-04-05 20:15:12,15.6993512,0.0004188,69.9986,269.3038,278.823,81.2491,3.7649e-05,4.319e-05,0.0,0 STARLINK-5275,1 55398U 23014H   23095.84389539  .00004319  00000-0  37649-4 0  9998,2 55398  69.9986 269.3038 0004188 278.8230  81.2491 15.69935120 11212,6737.22,91.724,361.906,356.263,0.0
55398.0,STARLINK-5275,PAYLOAD,2023-04-05 21:46:57,15.69943021,0.000452,69.999,269.1249,277.4608,82.6074,5.2161e-05,6.069e-05,0.0,0 STARLINK-5275,1 55398U 23014H   23095.90760738  .00006069  00000-0  52161-4 0  9999,2 55398  69.9990 269.1249 0004520 277.4608  82.6074 15.69943021 10280,6737.197,91.723,362.107,356.017,0.0
